OBJECT_NAME,OBJECT_ID,EPOCH,MEAN_MOTION,ECCENTRICITY,INCLINATION,RA_OF_ASC_NODE,ARG_OF_PERICENTER,MEAN_ANOMALY,EPHEMERIS_TYPE,CLASSIFICATION_TYPE,NORAD_CAT_ID,ELEMENT_SET_NO,REV_AT_EPOCH,BSTAR,MEAN_MOTION_DOT,MEAN_MOTION_DDOT
LAOSAT 1,2015-067A,2026-07-09T07:05:38.631264,1.00271534,.00023291,0.0407,188.6242,229.8521,103.6938,0,U,41034,999,3908,0,-.329E-5,0
TELSTAR 12V,2015-068A,2026-07-09T07:19:38.686368,1.00272085,.00021558,0.0153,305.9151,170.4812,265.7677,0,U,41036,999,3884,0,-.105E-5,0
ELEKTRO-L 2,2015-074A,2026-07-08T10:12:33.980256,1.00273098,.00006934,6.7437,70.2631,230.4230,124.3160,0,U,41105,999,3871,0,-.107E-5,0
COSMOS 2513,2015-075A,2026-07-09T14:02:04.287840,1.00264254,.0002752,0.0628,103.5481,349.9495,124.7841,0,U,41121,999,3877,0,-.124E-5,0
EXPRESS-AMU1,2015-082A,2026-07-09T06:54:38.736576,1.00270721,.00023756,0.0193,40.6435,75.8264,310.5012,0,U,41191,999,3848,0,.169E-5,0
GAOFEN-4,2015-083A,2026-07-09T07:18:28.194336,1.00270249,.0004365,0.4109,83.8795,118.7598,299.9257,0,U,41194,999,3875,0,-.321E-5,0
BELINTERSAT-1,2016-001A,2026-07-09T05:20:31.507296,1.00272052,.00017842,0.0237,95.5081,337.1137,346.1526,0,U,41238,999,3845,0,.121E-5,0
IRNSS-1E,2016-003A,2026-07-08T18:55:39.347904,1.00268624,.001924,33.2798,59.4366,178.8165,84.1076,0,U,41241,999,3829,0,-.309E-5,0
EUTELSAT 9B,2016-005A,2026-07-09T01:31:26.710176,1.00275912,.00010384,0.0213,42.4202,71.9880,204.4947,0,U,41310,999,3833,0,.77E-6,0
SES-9,2016-013A,2026-07-09T00:11:51.539424,1.00271987,.00022341,0.0161,326.3722,139.2826,292.5658,0,U,41380,999,3765,0,-.331E-5,0
EUTELSAT 65 WEST A,2016-014A,2026-07-09T07:51:38.718144,1.00271546,.00021127,0.0705,311.7097,157.7969,230.4936,0,U,41382,999,3774,0,-.263E-5,0
IRNSS-1F,2016-015A,2026-07-08T23:56:38.668128,1.00278216,.00173926,5.4020,96.2863,183.5321,38.8453,0,U,41384,999,3788,0,.168E-5,0
BEIDOU-2 IGSO-6,2016-021A,2026-06-26T02:38:38.671584,1.00258926,.0057558,60.2385,37.9495,231.0163,137.2672,0,U,41434,999,3757,0,-.145E-5,0
IRNSS-1G,2016-027A,2026-07-08T15:17:38.735232,1.00274494,.00059978,5.2469,96.9783,8.4226,180.2448,0,U,41469,999,3739,0,-.323E-5,0
JCSAT-2B,2016-028A,2026-07-09T04:24:38.593728,1.00271433,.00009154,0.0191,33.8375,83.6211,29.8364,0,U,41471,999,3735,0,-.151E-5,0
THAICOM 8,2016-031A,2026-07-09T00:20:21.246720,1.00270994,.00031414,0.0634,40.7055,31.8266,298.0114,0,U,41552,999,3693,0,-.107E-5,0
INTELSAT 31 (IS-31),2016-035A,2026-07-09T06:21:27.774720,1.00269957,.00010559,0.0257,262.4656,19.6437,5.4099,0,U,41581,999,3690,0,-.137E-5,0
BEIDOU-2 G7,2016-037A,2026-07-09T15:53:15.184320,1.00264599,.0006074,1.7726,69.5133,6.8145,199.9992,0,U,41586,999,711,0,-.341E-5,0
ABS-2A (MONGOLSAT-1),2016-038A,2026-07-09T04:06:38.810592,1.00268778,.00012382,0.0178,28.0991,21.9802,13.4093,0,U,41588,999,3692,0,-.7E-6,0
EUTELSAT 117 WEST B,2016-038B,2026-07-08T23:27:36.592704,1.00273299,.00002306,0.0061,153.6694,314.6908,53.4649,0,U,41589,999,3688,0,.2E-7,0
BRISAT,2016-039A,2026-07-09T04:32:38.772960,1.00270702,.0001924,0.0181,9.7163,99.1174,36.9619,0,U,41591,999,3683,0,0,0
ECHOSTAR 18,2016-039B,2026-07-08T20:14:54.544704,1.00272067,.00014365,0.0190,34.6506,84.6437,49.8625,0,U,41592,999,3684,0,-.268E-5,0
MUOS-5,2016-041A,2026-07-08T23:27:41.260032,1.00271796,.01991971,2.1590,302.0633,260.6289,331.0058,0,U,41622,999,3730,0,-.98E-6,0
TIANTONG-1 1,2016-048A,2026-07-09T00:26:50.624736,1.00271854,.00050908,3.8892,43.5702,55.7563,295.7516,0,U,41725,999,3648,0,-.306E-5,0
JCSAT-16,2016-050A,2026-07-08T15:23:13.479072,1.00268669,.00008608,0.0264,37.0581,93.7939,170.4964,0,U,41729,999,3628,0,0,0
USA 270,2016-052A,2026-07-08T10:52:44.133312,1.00271003,.0009267,4.2508,76.9127,101.4411,37.4334,0,U,41744,999,2834,0,-.339E-5,0
USA 271,2016-052B,2026-07-07T17:38:01.230144,1.00271212,.0010955,4.2217,76.9947,166.6184,44.5685,0,U,41745,999,2812,0,-.278E-5,0
INTELSAT 36 (IS-36),2016-053A,2026-07-07T19:12:15.204672,1.00285795,.00009753,0.0091,10.2892,27.8198,244.1989,0,U,41747,999,3616,0,-.12E-6,0
INSAT-3DR,2016-054A,2026-07-09T04:06:38.810592,1.00272060,.00105395,0.0539,89.1802,181.2734,152.3223,0,U,41752,999,3603,0,-.63E-6,0
GSAT-18,2016-060A,2026-07-09T04:06:38.810592,1.00271205,.00053927,0.0193,88.2909,349.0741,345.3793,0,U,41793,999,3574,0,-.63E-6,0
SKY MUSTER 2 (NBN1B),2016-060B,2026-07-09T07:29:49.605216,1.00270150,.00014792,0.0166,351.3480,122.6759,70.4740,0,U,41794,999,3574,0,-.231E-5,0
HIMAWARI-9,2016-064A,2026-07-09T07:05:02.630976,1.00269801,.00023488,0.0206,33.3033,146.1200,354.8366,0,U,41836,999,3543,0,0,0
