LAOSAT 1                
1 41034U 15067A   26190.29558601 -.00000329  00000+0  00000+0 0  9998
2 41034   0.0407 188.6242 0002329 229.8521 103.6938  1.00271534 39084
TELSTAR 12V             
1 41036U 15068A   26190.30530887 -.00000105  00000+0  00000+0 0  9991
2 41036   0.0153 305.9151 0002155 170.4812 265.7677  1.00272085 38843
ELEKTRO-L 2             
1 41105U 15074A   26189.42539329 -.00000107  00000+0  00000+0 0  9998
2 41105   6.7437  70.2631 0000693 230.4230 124.3160  1.00273098 38717
COSMOS 2513             
1 41121U 15075A   26190.58477185 -.00000124  00000+0  00000+0 0  9996
2 41121   0.0628 103.5481 0002752 349.9495 124.7841  1.00264254 38774
EXPRESS-AMU1            
1 41191U 15082A   26190.28794834  .00000169  00000+0  00000+0 0  9999
2 41191   0.0193  40.6435 0002375  75.8264 310.5012  1.00270721 38487
GAOFEN-4                
1 41194U 15083A   26190.30449299 -.00000321  00000+0  00000+0 0  9999
2 41194   0.4109  83.8795 0004365 118.7598 299.9257  1.00270249 38753
BELINTERSAT-1           
1 41238U 16001A   26190.22258689  .00000121  00000+0  00000+0 0  9998
2 41238   0.0237  95.5081 0001784 337.1137 346.1526  1.00272052 38451
IRNSS-1E                
1 41241U 16003A   26189.78864986 -.00000309  00000+0  00000+0 0  9995
2 41241  33.2798  59.4366 0019240 178.8165  84.1076  1.00268624 38298
EUTELSAT 9B             
1 41310U 16005A   26190.06350359  .00000077  00000+0  00000+0 0  9992
2 41310   0.0213  42.4202 0001038  71.9880 204.4947  1.00275912 38330
SES-9                   
1 41380U 16013A   26190.00823541 -.00000331  00000+0  00000+0 0  9994
2 41380   0.0161 326.3722 0002234 139.2826 292.5658  1.00271987 37656
EUTELSAT 65 WEST A      
1 41382U 16014A   26190.32753146 -.00000263  00000+0  00000+0 0  9999
2 41382   0.0705 311.7097 0002112 157.7969 230.4936  1.00271546 37744
IRNSS-1F                
1 41384U 16015A   26189.99766977  .00000168  00000+0  00000+0 0  9992
2 41384   5.4020  96.2863 0017392 183.5321  38.8453  1.00278216 37886
BEIDOU-2 IGSO-6         
1 41434U 16021A   26177.11016981 -.00000145  00000+0  00000+0 0  9995
2 41434  60.2385  37.9495 0057558 231.0163 137.2672  1.00258926 37578
IRNSS-1G                
1 41469U 16027A   26189.63725388 -.00000323  00000+0  00000+0 0  9995
2 41469   5.2469  96.9783 0005997   8.4226 180.2448  1.00274494 37396
JCSAT-2B                
1 41471U 16028A   26190.18378002 -.00000151  00000+0  00000+0 0  9997
2 41471   0.0191  33.8375 0000915  83.6211  29.8364  1.00271433 37356
THAICOM 8               
1 41552U 16031A   26190.01413480 -.00000107  00000+0  00000+0 0  9994
2 41552   0.0634  40.7055 0003141  31.8266 298.0114  1.00270994 36936
INTELSAT 31 (IS-31)     
1 41581U 16035A   26190.26490480 -.00000137  00000+0  00000+0 0  9995
2 41581   0.0257 262.4656 0001055  19.6437   5.4099  1.00269957 36901
BEIDOU-2 G7             
1 41586U 16037A   26190.66198130 -.00000341  00000+0  00000+0 0  9990
2 41586   1.7726  69.5133 0006074   6.8145 199.9992  1.00264599  7110
ABS-2A (MONGOLSAT-1)    
1 41588U 16038A   26190.17128253 -.00000070  00000+0  00000+0 0  9997
2 41588   0.0178  28.0991 0001238  21.9802  13.4093  1.00268778 36928
EUTELSAT 117 WEST B     
1 41589U 16038B   26189.97750686  .00000002  00000+0  00000+0 0  9999
2 41589   0.0061 153.6694 0000230 314.6908  53.4649  1.00273299 36885
BRISAT                  
1 41591U 16039A   26190.18933765  .00000000  00000+0  00000+0 0  9997
2 41591   0.0181   9.7163 0001924  99.1174  36.9619  1.00270702 36838
ECHOSTAR 18             
1 41592U 16039B   26189.84368686 -.00000268  00000+0  00000+0 0  9990
2 41592   0.0190  34.6506 0001436  84.6437  49.8625  1.00272067 36843
MUOS-5                  
1 41622U 16041A   26189.97756088 -.00000098  00000+0  00000+0 0  9999
2 41622   2.1590 302.0633 0199197 260.6289 331.0058  1.00271796 37306
TIANTONG-1 1            
1 41725U 16048A   26190.01864149 -.00000306  00000+0  00000+0 0  9997
2 41725   3.8892  43.5702 0005090  55.7563 295.7516  1.00271854 36481
JCSAT-16                
1 41729U 16050A   26189.64112823  .00000000  00000+0  00000+0 0  9996
2 41729   0.0264  37.0581 0000860  93.7939 170.4964  1.00268669 36283
USA 270                 
1 41744U 16052A   26189.45328858 -.00000339  00000+0  00000+0 0  9997
2 41744   4.2508  76.9127 0009267 101.4411  37.4334  1.00271003 28344
USA 271                 
1 41745U 16052B   26188.73473646 -.00000278  00000+0  00000+0 0  9996
2 41745   4.2217  76.9947 0010955 166.6184  44.5685  1.00271212 28124
INTELSAT 36 (IS-36)     
1 41747U 16053A   26188.80017598 -.00000012  00000+0  00000+0 0  9993
2 41747   0.0091  10.2892 0000975  27.8198 244.1989  1.00285795 36163
INSAT-3DR               
1 41752U 16054A   26190.17128253 -.00000063  00000+0  00000+0 0  9990
2 41752   0.0539  89.1802 0010539 181.2734 152.3223  1.00272060 36038
GSAT-18                 
1 41793U 16060A   26190.17128253 -.00000063  00000+0  00000+0 0  9992
2 41793   0.0193  88.2909 0005392 349.0741 345.3793  1.00271205 35743
SKY MUSTER 2 (NBN1B)    
1 41794U 16060B   26190.31237969 -.00000231  00000+0  00000+0 0  9991
2 41794   0.0166 351.3480 0001479 122.6759  70.4740  1.00270150 35744
HIMAWARI-9              
1 41836U 16064A   26190.29516934  .00000000  00000+0  00000+0 0  9994
2 41836   0.0206  33.3033 0002348 146.1200 354.8366  1.00269801 35435
